NORAD_CAT_ID,OBJECT_NAME,OBJECT_TYPE,EPOCH,MEAN_MOTION,ECCENTRICITY,INCLINATION,RA_OF_ASC_NODE,ARG_OF_PERICENTER,MEAN_ANOMALY,BSTAR,MEAN_MOTION_DOT,MEAN_MOTION_DDOT,TLE_LINE0,TLE_LINE1,TLE_LINE2,SEMIMAJOR_AXIS,PERIOD,APOGEE,PERIGEE,DECAYED
53727.0,STARLINK-4701,PAYLOAD,2023-02-24 19:56:02,15.08852116,0.000121,53.2163,191.9754,91.8355,268.2775,0.0014245,0.00022463,0.0,0 STARLINK-4701,1 53727U 22107AD  23055.83058496  .00022463  00000-0  14245-2 0  9999,2 53727  53.2163 191.9754 0001210  91.8355 268.2775 15.08852116 27156,6917.843,95.437,540.545,538.871,0.0
53727.0,STARLINK-4701,PAYLOAD,2023-02-25 02:17:35,15.08836373,2.19e-05,53.2163,190.7856,101.3964,258.7053,0.00042019,6.405e-05,0.0,0 STARLINK-4701,1 53727U 22107AD  23056.09554595  .00006405  00000-0  42019-3 0  9998,2 53727  53.2163 190.7856 0000219 101.3964 258.7053 15.08836373 26594,6917.891,95.438,539.908,539.605,0.0
53727.0,STARLINK-4701,PAYLOAD,2023-02-25 13:25:17,15.08838168,0.0001323,53.2161,188.7045,82.4729,277.6413,0.0011702,0.00018384,0.0,0 STARLINK-4701,1 53727U 22107AD  23056.55923326  .00018384  00000-0  11702-2 0  9994,2 53727  53.2161 188.7045 0001323  82.4729 277.6413 15.08838168 27263,6917.886,95.438,540.666,538.836,0.0
53727.0,STARLINK-4701,PAYLOAD,2023-02-25 19:46:50,15.08850059,0.0001328,53.2163,187.5154,77.5203,282.5937,0.0016216,0.00025621,0.0,0 STARLINK-4701,1 53727U 22107AD  23056.82419266  .00025621  00000-0  16216-2 0  9994,2 53727  53.2163 187.5154 0001328  77.5203 282.5937 15.08850059 27304,6917.85,95.437,540.633,538.796,0.0
53727.0,STARLINK-4701,PAYLOAD,2023-02-26 11:40:41,15.0887316,0.000122,53.2164,184.542,69.2883,290.824,0.0017589,0.00027841,0.0,0 STARLINK-4701,1 53727U 22107AD  23057.48658678  .00027841  00000-0  17589-2 0  9999,2 53727  53.2164 184.5420 0001220  69.2883 290.8240 15.08873160 27409,6917.779,95.435,540.488,538.8,0.0
53727.0,STARLINK-4701,PAYLOAD,2023-02-26 19:37:35,15.08892493,0.000124,53.2163,183.0545,70.5669,289.5457,0.001717,0.00027183,0.0,0 STARLINK-4701,1 53727U 22107AD  23057.81777642  .00027183  00000-0  17170-2 0  9994,2 53727  53.2163 183.0545 0001240  70.5669 289.5457 15.08892493 26852,6917.72,95.434,540.443,538.727,0.0
53727.0,STARLINK-4701,PAYLOAD,2023-02-27 17:52:59,15.08919113,0.0001045,53.2165,178.8925,79.7448,280.3662,0.005745,0.00092547,0.0,0 STARLINK-4701,1 53727U 22107AD  23058.74513310  .00092547  00000-0  57450-2 0  9998,2 53727  53.2165 178.8925 0001045  79.7448 280.3662 15.08919113 26998,6917.639,95.433,540.226,538.781,0.0
53727.0,STARLINK-4701,PAYLOAD,2023-02-28 12:57:38,15.08830055,0.0001561,53.2169,175.3214,133.7145,226.3977,0.0015165,0.00023923,0.0,0 STARLINK-4701,1 53727U 22107AD  23059.54003058  .00023923  00000-0  15165-2 0  9999,2 53727  53.2169 175.3214 0001561 133.7145 226.3977 15.08830055 27710,6917.911,95.438,540.856,538.696,0.0
53727.0,STARLINK-4701,PAYLOAD,2023-02-28 19:19:11,15.08838086,0.0001802,53.2171,174.129,136.0316,224.0819,0.0012309,0.00019355,0.0,0 STARLINK-4701,1 53727U 22107AD  23059.80499103  .00019355  00000-0  12309-2 0  9999,2 53727  53.2171 174.1290 0001802 136.0316 224.0819 15.08838086 27754,6917.886,95.438,540.998,538.505,0.0
53727.0,STARLINK-4701,PAYLOAD,2023-03-01 00:05:21,15.0882288,0.0001208,53.2173,173.2419,105.854,254.2585,0.00049309,7.565e-05,0.0,0 STARLINK-4701,1 53727U 22107AD  23060.00371739  .00007565  00000-0  49309-3 0  9998,2 53727  53.2173 173.2419 0001208 105.8540 254.2585 15.08822880 27189,6917.933,95.439,540.633,538.962,0.0
53727.0,STARLINK-4701,PAYLOAD,2023-03-01 11:13:03,15.08818298,0.0001599,53.2168,171.1607,99.3487,260.7686,0.00048547,7.442e-05,0.0,0 STARLINK-4701,1 53727U 22107AD  23060.46740602  .00007442  00000-0  48547-3 0  9994,2 53727  53.2168 171.1607 0001599  99.3487 260.7686 15.08818298 27259,6917.947,95.439,540.918,538.706,0.0
53727.0,STARLINK-4701,PAYLOAD,2023-03-01 17:34:36,15.08828195,0.0001796,53.2178,169.9716,107.6885,252.4304,0.00066884,0.00010369,0.0,0 STARLINK-4701,1 53727U 22107AD  23060.73236792  .00010369  00000-0  66884-3 0  9990,2 53727  53.2178 169.9716 0001796 107.6885 252.4304 15.08828195 27892,6917.916,95.438,541.024,538.539,0.0
53727.0,STARLINK-4701,PAYLOAD,2023-03-02 17:25:23,15.08873261,0.000165,53.2179,165.5097,104.5704,255.5471,0.0014246,0.00022478,0.0,0 STARLINK-4701,1 53727U 22107AD  23061.72596089  .00022478  00000-0  14246-2 0  9996,2 53727  53.2179 165.5097 0001650 104.5704 255.5471 15.08873261 28043,6917.779,95.435,540.785,538.502,0.0
53727.0,STARLINK-4701,PAYLOAD,2023-03-03 06:08:27,15.08876899,0.0001862,53.2179,163.1341,106.1558,253.9639,0.0016243,0.00025684,0.0,0 STARLINK-4701,1 53727U 22107AD  23062.25587526  .00025684  00000-0  16243-2 0  9992,2 53727  53.2179 163.1341 0001862 106.1558 253.9639 15.08876899 27529,6917.768,95.435,540.921,538.345,0.0
53727.0,STARLINK-4701,PAYLOAD,2023-03-03 10:54:36,15.08878118,0.0003262,53.2175,162.2366,139.3739,220.7497,0.0013413,0.00021147,0.0,0 STARLINK-4701,1 53727U 22107AD  23062.45458830  .00021147  00000-0  13413-2 0  9995,2 53727  53.2175 162.2366 0003262 139.3739 220.7497 15.08878118 28157,6917.764,95.435,541.885,537.372,0.0
53727.0,STARLINK-4701,PAYLOAD,2023-03-03 18:51:31,15.08891088,0.0002378,53.2157,160.7485,131.5189,228.6007,0.0013112,0.00020671,0.0,0 STARLINK-4701,1 53727U 22107AD  23062.78577957  .00020671  00000-0  13112-2 0  9990,2 53727  53.2157 160.7485 0002378 131.5189 228.6007 15.08891088 27606,6917.724,95.434,541.234,537.944,0.0
53727.0,STARLINK-4701,PAYLOAD,2023-03-04 05:59:14,15.08830403,9.82e-05,53.218,158.6708,138.6895,221.4171,-0.00042958,-7.116e-05,0.0,0 STARLINK-4701,1 53727U 22107AD  23063.24946787 -.00007116  00000-0 -42958-3 0  9995,2 53727  53.2180 158.6708 0000982 138.6895 221.4171 15.08830403 27671,6917.91,95.438,540.454,539.095,0.0
53727.0,STARLINK-4701,PAYLOAD,2023-03-04 10:45:23,15.08832835,9.01e-05,53.2172,157.7809,139.2096,220.8964,0.0027612,0.00043922,0.0,0 STARLINK-4701,1 53727U 22107AD  23063.44819168  .00043922  00000-0  27612-2 0  9991,2 53727  53.2172 157.7809 0000901 139.2096 220.8964 15.08832835 28300,6917.902,95.438,540.391,539.144,0.0
53727.0,STARLINK-4701,PAYLOAD,2023-03-04 15:31:33,15.08860678,0.0001067,53.2167,156.8877,124.8208,235.2885,0.003736,0.00059708,0.0,0 STARLINK-4701,1 53727U 22107AD  23063.64691111  .00059708  00000-0  37360-2 0  9999,2 53727  53.2167 156.8877 0001067 124.8208 235.2885 15.08860678 27732,6917.817,95.436,540.42,538.944,0.0
53727.0,STARLINK-4701,PAYLOAD,2023-03-04 18:42:19,15.08866546,0.0001005,53.2166,156.2926,111.5219,248.5881,0.0027257,0.0004339,0.0,0 STARLINK-4701,1 53727U 22107AD  23063.77939015  .00043390  00000-0  27257-2 0  9995,2 53727  53.2166 156.2926 0001005 111.5219 248.5881 15.08866546 28359,6917.799,95.436,540.359,538.969,0.0
53727.0,STARLINK-4701,PAYLOAD,2023-03-05 05:50:01,15.08838004,8.06e-05,53.2171,154.21,127.2332,232.8734,0.00096026,0.00015027,0.0,0 STARLINK-4701,1 53727U 22107AD  23064.24307666  .00015027  00000-0  96026-3 0  9996,2 53727  53.2171 154.2100 0000806 127.2332 232.8734 15.08838004 27827,6917.886,95.438,540.309,539.194,0.0
53727.0,STARLINK-4701,PAYLOAD,2023-03-05 15:22:20,15.08877612,0.0001023,53.2162,152.4268,100.5933,259.5175,0.003379,0.00053956,0.0,0 STARLINK-4701,1 53727U 22107AD  23064.64051403  .00053956  00000-0  33790-2 0  9996,2 53727  53.2162 152.4268 0001023 100.5933 259.5175 15.08877612 27884,6917.765,95.435,540.338,538.923,0.0
53727.0,STARLINK-4701,PAYLOAD,2023-03-06 05:40:48,15.08858342,0.0001602,53.2174,149.7517,115.5661,244.5497,0.0023859,0.00037907,0.0,0 STARLINK-4701,1 53727U 22107AD  23065.23667304  .00037907  00000-0  23859-2 0  9998,2 53727  53.2174 149.7517 0001602 115.5661 244.5497 15.08858342 27970,6917.824,95.436,540.798,538.581,0.0
53727.0,STARLINK-4701,PAYLOAD,2023-03-06 15:13:06,15.08878463,0.0001186,53.2179,147.9662,130.2046,229.905,0.0015747,0.00024889,0.0,0 STARLINK-4701,1 53727U 22107AD  23065.63410295  .00024889  00000-0  15747-2 0  9999,2 53727  53.2179 147.9662 0001186 130.2046 229.9050 15.08878463 28030,6917.763,95.435,540.448,538.807,0.0
53727.0,STARLINK-4701,PAYLOAD,2023-03-07 05:31:35,15.08840186,0.0001468,53.2187,145.2909,114.0963,246.0182,0.00091906,0.00014369,0.0,0 STARLINK-4701,1 53727U 22107AD  23066.23027266  .00014369  00000-0  91906-3 0  9992,2 53727  53.2187 145.2909 0001468 114.0963 246.0182 15.08840186 28122,6917.88,95.438,540.76,538.729,0.0
53727.0,STARLINK-4701,PAYLOAD,2023-03-07 16:39:17,15.0886616,0.0001297,53.2178,143.2095,97.6501,262.4639,0.0022704,0.00036056,0.0,0 STARLINK-4701,1 53727U 22107AD  23066.69395103  .00036056  00000-0  22704-2 0  9996,2 53727  53.2178 143.2095 0001297  97.6501 262.4639 15.08866160 28196,6917.8,95.436,540.563,538.768,0.0
53727.0,STARLINK-4701,PAYLOAD,2023-03-08 14:54:42,15.08878811,0.0001408,53.2173,139.0468,106.6584,253.4563,0.0049134,0.00078868,0.0,0 STARLINK-4701,1 53727U 22107AD  23067.62132028  .00078868  00000-0  49134-2 0  9998,2 53727  53.2173 139.0468 0001408 106.6584 253.4563 15.08878811 28332,6917.762,95.435,540.601,538.653,0.0
53727.0,STARLINK-4701,PAYLOAD,2023-03-08 21:16:14,15.08870882,0.0001592,53.2171,137.8553,65.4036,294.7122,0.0047647,0.0007643,0.0,0 STARLINK-4701,1 53727U 22107AD  23067.88628268  .00076430  00000-0  47647-2 0  9992,2 53727  53.2171 137.8553 0001592  65.4036 294.7122 15.08870882 28372,6917.786,95.436,540.752,538.55,0.0
53727.0,STARLINK-4701,PAYLOAD,2023-03-09 14:45:28,15.08892178,0.0001385,53.2169,134.5861,83.0887,277.0262,0.0034665,0.00055394,0.0,0 STARLINK-4701,1 53727U 22107AD  23068.61491395  .00055394  00000-0  34665-2 0  9995,2 53727  53.2169 134.5861 0001385  83.0887 277.0262 15.08892178 28488,6917.721,95.434,540.544,538.628,0.0
53727.0,STARLINK-4701,PAYLOAD,2023-03-09 21:07:00,15.0885279,0.0001042,53.2175,133.3975,129.1263,230.9822,-9.0991e-05,-1.736e-05,0.0,0 STARLINK-4701,1 53727U 22107AD  23068.87987224 -.00001736  00000-0 -90991-4 0  9993,2 53727  53.2175 133.3975 0001042 129.1263 230.9822 15.08852790 29126,6917.841,95.437,540.427,538.985,0.0
